{
  "type": "FeatureCollection",
  "features": [
    {
      "type": "Feature",
      "properties": {
        "norad_id": 31307,
        "name": "GALAXY 17 (G-17)",
        "group": "intelsat",
        "lat": 0.5079678935455677,
        "lon": 93.8663360346829,
        "alt_km": 35807.66354088456,
        "timestamp": "2025-12-02T07:10:08.777083+00:00",
        "meta_object_name": "GALAXY 17 (G-17)",
        "meta_object_id": "2007-016B",
        "meta_epoch": "2025-12-01T18:32:32.106912",
        "meta_mean_motion": 1.00269561,
        "meta_eccentricity": 0.0006148,
        "meta_inclination": 2.4697,
        "meta_ra_of_asc_node": 82.4105,
        "meta_arg_of_pericenter": 155.0529,
        "meta_mean_anomaly": 26.5643,
        "meta_ephemeris_type": 0,
        "meta_classification_type": "U",
        "meta_norad_cat_id": 31307,
        "meta_element_set_no": 999,
        "meta_rev_at_epoch": 6782,
        "meta_bstar": 0,
        "meta_mean_motion_dot": -1.85e-06,
        "meta_mean_motion_ddot": 0,
        "tle_line1": "1 31307U 07016B   25335.77259383 -.00000185  00000+0  00000+0 0  9993",
        "tle_line2": "2 31307   2.4697  82.4105 0006148 155.0529  26.5643  1.00269561 67829"
      },
      "geometry": {
        "type": "Point",
        "coordinates": [
          93.8663360346829,
          0.5079678935455677
        ]
      }
    },
    {
      "type": "Feature",
      "properties": {
        "norad_id": 31862,
        "name": "DIRECTV 10",
        "group": "intelsat",
        "lat": -0.0068634775501249965,
        "lon": 76.12358129293096,
        "alt_km": 35786.49246125488,
        "timestamp": "2025-12-02T07:10:08.777107+00:00",
        "meta_object_name": "DIRECTV 10",
        "meta_object_id": "2007-032A",
        "meta_epoch": "2025-12-01T15:02:03.106176",
        "meta_mean_motion": 1.00272967,
        "meta_eccentricity": 3.05e-05,
        "meta_inclination": 0.0145,
        "meta_ra_of_asc_node": 137.1241,
        "meta_arg_of_pericenter": 63.3925,
        "meta_mean_anomaly": 352.9493,
        "meta_ephemeris_type": 0,
        "meta_classification_type": "U",
        "meta_norad_cat_id": 31862,
        "meta_element_set_no": 999,
        "meta_rev_at_epoch": 4361,
        "meta_bstar": 0,
        "meta_mean_motion_dot": -8.2e-07,
        "meta_mean_motion_ddot": 0,
        "tle_line1": "1 31862U 07032A   25335.62642484 -.00000082  00000+0  00000+0 0  9995",
        "tle_line2": "2 31862   0.0145 137.1241 0000305  63.3925 352.9493  1.00272967 43610"
      },
      "geometry": {
        "type": "Point",
        "coordinates": [
          76.12358129293096,
          -0.0068634775501249965
        ]
      }
    },
    {
      "type": "Feature",
      "properties": {
        "norad_id": 32253,
        "name": "INTELSAT 11 (IS-11)",
        "group": "intelsat",
        "lat": 0.5187887470946638,
        "lon": 90.52863105948676,
        "alt_km": 36166.97343426492,
        "timestamp": "2025-12-02T07:10:08.777121+00:00",
        "meta_object_name": "INTELSAT 11 (IS-11)",
        "meta_object_id": "2007-044B",
        "meta_epoch": "2025-12-01T11:41:52.277568",
        "meta_mean_motion": 0.99047742,
        "meta_eccentricity": 0.00092085,
        "meta_inclination": 3.0482,
        "meta_ra_of_asc_node": 81.103,
        "meta_arg_of_pericenter": 159.8514,
        "meta_mean_anomaly": 280.3727,
        "meta_ephemeris_type": 0,
        "meta_classification_type": "U",
        "meta_norad_cat_id": 32253,
        "meta_element_set_no": 999,
        "meta_rev_at_epoch": 6649,
        "meta_bstar": 0,
        "meta_mean_motion_dot": -2.9e-07,
        "meta_mean_motion_ddot": 0,
        "tle_line1": "1 32253U 07044B   25335.48741062 -.00000029  00000+0  00000+0 0  9990",
        "tle_line2": "2 32253   3.0482  81.1030 0009208 159.8514 280.3727  0.99047742 66495"
      },
      "geometry": {
        "type": "Point",
        "coordinates": [
          90.52863105948676,
          0.5187887470946638
        ]
      }
    },
    {
      "type": "Feature",
      "properties": {
        "norad_id": 32388,
        "name": "HORIZONS-2",
        "group": "intelsat",
        "lat": 0.7969046082281597,
        "lon": 105.09205370936236,
        "alt_km": 35804.73287246294,
        "timestamp": "2025-12-02T07:10:08.777134+00:00",
        "meta_object_name": "HORIZONS-2",
        "meta_object_id": "2007-063B",
        "meta_epoch": "2025-12-01T18:36:01.772064",
        "meta_mean_motion": 1.00272703,
        "meta_eccentricity": 0.0004861,
        "meta_inclination": 2.0906,
        "meta_ra_of_asc_node": 83.083,
        "meta_arg_of_pericenter": 179.2837,
        "meta_mean_anomaly": 13.7397,
        "meta_ephemeris_type": 0,
        "meta_classification_type": "U",
        "meta_norad_cat_id": 32388,
        "meta_element_set_no": 999,
        "meta_rev_at_epoch": 6583,
        "meta_bstar": 0,
        "meta_mean_motion_dot": -2.32e-06,
        "meta_mean_motion_ddot": 0,
        "tle_line1": "1 32388U 07063B   25335.77502051 -.00000232  00000+0  00000+0 0  9991",
        "tle_line2": "2 32388   2.0906  83.0830 0004861 179.2837  13.7397  1.00272703 65835"
      },
      "geometry": {
        "type": "Point",
        "coordinates": [
          105.09205370936236,
          0.7969046082281597
        ]
      }
    },
    {
      "type": "Feature",
      "properties": {
        "norad_id": 32729,
        "name": "DIRECTV 11",
        "group": "intelsat",
        "lat": 0.0032910663621488557,
        "lon": 79.69562681621618,
        "alt_km": 35788.62596648556,
        "timestamp": "2025-12-02T07:10:08.777146+00:00",
        "meta_object_name": "DIRECTV 11",
        "meta_object_id": "2008-013A",
        "meta_epoch": "2025-12-01T15:03:17.987328",
        "meta_mean_motion": 1.00262996,
        "meta_eccentricity": 9.13e-05,
        "meta_inclination": 0.0132,
        "meta_ra_of_asc_node": 202.9739,
        "meta_arg_of_pericenter": 327.4852,
        "meta_mean_anomaly": 26.9234,
        "meta_ephemeris_type": 0,
        "meta_classification_type": "U",
        "meta_norad_cat_id": 32729,
        "meta_element_set_no": 999,
        "meta_rev_at_epoch": 4361,
        "meta_bstar": 0,
        "meta_mean_motion_dot": -1.03e-06,
        "meta_mean_motion_ddot": 0,
        "tle_line1": "1 32729U 08013A   25335.62729152 -.00000103  00000+0  00000+0 0  9990",
        "tle_line2": "2 32729   0.0132 202.9739 0000913 327.4852  26.9234  1.00262996 43612"
      },
      "geometry": {
        "type": "Point",
        "coordinates": [
          79.69562681621618,
          0.0032910663621488557
        ]
      }
    },
    {
      "type": "Feature",
      "properties": {
        "norad_id": 32951,
        "name": "GALAXY 18 (G-18)",
        "group": "intelsat",
        "lat": 0.0421589173041451,
        "lon": 55.895915281308866,
        "alt_km": 35799.42055425151,
        "timestamp": "2025-12-02T07:10:08.777158+00:00",
        "meta_object_name": "GALAXY 18 (G-18)",
        "meta_object_id": "2008-024A",
        "meta_epoch": "2025-12-01T16:39:16.295040",
        "meta_mean_motion": 1.00272386,
        "meta_eccentricity": 0.0003346,
        "meta_inclination": 0.021,
        "meta_ra_of_asc_node": 335.3727,
        "meta_arg_of_pericenter": 277.6866,
        "meta_mean_anomaly": 304.5377,
        "meta_ephemeris_type": 0,
        "meta_classification_type": "U",
        "meta_norad_cat_id": 32951,
        "meta_element_set_no": 999,
        "meta_rev_at_epoch": 4387,
        "meta_bstar": 0,
        "meta_mean_motion_dot": 0,
        "meta_mean_motion_ddot": 0,
        "tle_line1": "1 32951U 08024A   25335.69393860  .00000000  00000+0  00000+0 0  9994",
        "tle_line2": "2 32951   0.0210 335.3727 0003346 277.6866 304.5377  1.00272386 43873"
      },
      "geometry": {
        "type": "Point",
        "coordinates": [
          55.895915281308866,
          0.0421589173041451
        ]
      }
    },
    {
      "type": "Feature",
      "properties": {
        "norad_id": 33153,
        "name": "INTELSAT 25 (IS-25)",
        "group": "intelsat",
        "lat": 1.9808501693005742,
        "lon": 147.3514161546834,
        "alt_km": 35793.64426912429,
        "timestamp": "2025-12-02T07:10:08.777170+00:00",
        "meta_object_name": "INTELSAT 25 (IS-25)",
        "meta_object_id": "2008-034A",
        "meta_epoch": "2025-12-01T18:48:00.625248",
        "meta_mean_motion": 1.002719,
        "meta_eccentricity": 0.0005239,
        "meta_inclination": 2.197,
        "meta_ra_of_asc_node": 82.7716,
        "meta_arg_of_pericenter": 175.3348,
        "meta_mean_anomaly": 63.301,
        "meta_ephemeris_type": 0,
        "meta_classification_type": "U",
        "meta_norad_cat_id": 33153,
        "meta_element_set_no": 999,
        "meta_rev_at_epoch": 6371,
        "meta_bstar": 0,
        "meta_mean_motion_dot": -2.02e-06,
        "meta_mean_motion_ddot": 0,
        "tle_line1": "1 33153U 08034A   25335.78334057 -.00000202  00000+0  00000+0 0  9998",
        "tle_line2": "2 33153   2.1970  82.7716 0005239 175.3348  63.3010  1.00271900 63717"
      },
      "geometry": {
        "type": "Point",
        "coordinates": [
          147.3514161546834,
          1.9808501693005742
        ]
      }
    }
  ]
}